[{"OBJECT_NAME":"ONEWEB-0229","OBJECT_ID":"2021-045N","EPOCH":"2026-01-07T19:24:54.516384","MEAN_MOTION":13.15549568,"ECCENTRICITY":0.0001759,"INCLINATION":87.9013,"RA_OF_ASC_NODE":291.1915,"ARG_OF_PERICENTER":70.0612,"MEAN_ANOMALY":290.0707,"EPHEMERIS_TYPE":0,"CLASSIFICATION_TYPE":"U","NORAD_CAT_ID":48779,"ELEMENT_SET_NO":999,"REV_AT_EPOCH":22332,"BSTAR":-0.00016406,"MEAN_MOTION_DOT":-4.9e-7,"MEAN_MOTION_DDOT":0},{"OBJECT_NAME":"ONEWEB-0228","OBJECT_ID":"2021-045P","EPOCH":"2026-01-07T20:13:00.958080","MEAN_MOTION":13.15550296,"ECCENTRICITY":0.0001607,"INCLINATION":87.9014,"RA_OF_ASC_NODE":291.1713,"ARG_OF_PERICENTER":70.1627,"MEAN_ANOMALY":289.9676,"EPHEMERIS_TYPE":0,"CLASSIFICATION_TYPE":"U","NORAD_CAT_ID":48780,"ELEMENT_SET_NO":999,"REV_AT_EPOCH":22324,"BSTAR":0.00048391,"MEAN_MOTION_DOT":1.95e-6,"MEAN_MOTION_DDOT":0},{"OBJECT_NAME":"ONEWEB-0232","OBJECT_ID":"2021-045Q","EPOCH":"2026-01-07T19:36:18.501984","MEAN_MOTION":13.15550344,"ECCENTRICITY":0.0001642,"INCLINATION":87.9027,"RA_OF_ASC_NODE":291.1707,"ARG_OF_PERICENTER":72.8253,"MEAN_ANOMALY":287.3057,"EPHEMERIS_TYPE":0,"CLASSIFICATION_TYPE":"U","NORAD_CAT_ID":48781,"ELEMENT_SET_NO":999,"REV_AT_EPOCH":22356,"BSTAR":-0.00018229,"MEAN_MOTION_DOT":-5.6e-7,"MEAN_MOTION_DDOT":0},{"OBJECT_NAME":"ONEWEB-0231","OBJECT_ID":"2021-045R","EPOCH":"2026-01-07T17:14:49.860096","MEAN_MOTION":13.15547869,"ECCENTRICITY":0.0001655,"INCLINATION":87.9008,"RA_OF_ASC_NODE":291.2278,"ARG_OF_PERICENTER":64.7395,"MEAN_ANOMALY":295.3907,"EPHEMERIS_TYPE":0,"CLASSIFICATION_TYPE":"U","NORAD_CAT_ID":48782,"ELEMENT_SET_NO":999,"REV_AT_EPOCH":22324,"BSTAR":-0.00010319,"MEAN_MOTION_DOT":-2.6e-7,"MEAN_MOTION_DDOT":0},{"OBJECT_NAME":"ONEWEB-0234","OBJECT_ID":"2021-045S","EPOCH":"2026-01-07T19:58:54.962112","MEAN_MOTION":13.15549774,"ECCENTRICITY":0.0001275,"INCLINATION":87.9012,"RA_OF_ASC_NODE":291.1807,"ARG_OF_PERICENTER":105.7098,"MEAN_ANOMALY":254.4173,"EPHEMERIS_TYPE":0,"CLASSIFICATION_TYPE":"U","NORAD_CAT_ID":48783,"ELEMENT_SET_NO":999,"REV_AT_EPOCH":22339,"BSTAR":0.00033205,"MEAN_MOTION_DOT":1.38e-6,"MEAN_MOTION_DDOT":0},{"OBJECT_NAME":"ONEWEB-0238","OBJECT_ID":"2021-045T","EPOCH":"2026-01-07T19:59:20.006880","MEAN_MOTION":13.15549781,"ECCENTRICITY":0.0001396,"INCLINATION":87.9012,"RA_OF_ASC_NODE":291.1735,"ARG_OF_PERICENTER":89.0722,"MEAN_ANOMALY":271.0568,"EPHEMERIS_TYPE":0,"CLASSIFICATION_TYPE":"U","NORAD_CAT_ID":48784,"ELEMENT_SET_NO":999,"REV_AT_EPOCH":22329,"BSTAR":0.00034869,"MEAN_MOTION_DOT":1.44e-6,"MEAN_MOTION_DDOT":0},{"OBJECT_NAME":"ONEWEB-0240","OBJECT_ID":"2021-045U","EPOCH":"2026-01-07T18:40:24.567168","MEAN_MOTION":13.15548215,"ECCENTRICITY":0.0001342,"INCLINATION":87.9021,"RA_OF_ASC_NODE":291.1821,"ARG_OF_PERICENTER":66.6267,"MEAN_ANOMALY":293.5004,"EPHEMERIS_TYPE":0,"CLASSIFICATION_TYPE":"U","NORAD_CAT_ID":48785,"ELEMENT_SET_NO":999,"REV_AT_EPOCH":22331,"BSTAR":0.00043029,"MEAN_MOTION_DOT":1.75e-6,"MEAN_MOTION_DDOT":0},{"OBJECT_NAME":"ONEWEB-0246","OBJECT_ID":"2021-045V","EPOCH":"2026-01-07T18:32:25.352160","MEAN_MOTION":13.15548434,"ECCENTRICITY":0.0001774,"INCLINATION":87.9017,"RA_OF_ASC_NODE":291.1931,"ARG_OF_PERICENTER":71.2029,"MEAN_ANOMALY":288.9293,"EPHEMERIS_TYPE":0,"CLASSIFICATION_TYPE":"U","NORAD_CAT_ID":48786,"ELEMENT_SET_NO":999,"REV_AT_EPOCH":22318,"BSTAR":0.00052773,"MEAN_MOTION_DOT":2.11e-6,"MEAN_MOTION_DDOT":0},{"OBJECT_NAME":"ONEWEB-0210","OBJECT_ID":"2021-045W","EPOCH":"2026-01-07T19:45:26.354016","MEAN_MOTION":13.15548242,"ECCENTRICITY":0.000194,"INCLINATION":87.9015,"RA_OF_ASC_NODE":291.1811,"ARG_OF_PERICENTER":55.2311,"MEAN_ANOMALY":304.9002,"EPHEMERIS_TYPE":0,"CLASSIFICATION_TYPE":"U","NORAD_CAT_ID":48787,"ELEMENT_SET_NO":999,"REV_AT_EPOCH":22323,"BSTAR":-0.00012236,"MEAN_MOTION_DOT":-3.3e-7,"MEAN_MOTION_DDOT":0},{"OBJECT_NAME":"ONEWEB-0214","OBJECT_ID":"2021-045X","EPOCH":"2026-01-07T19:57:58.940352","MEAN_MOTION":13.15550368,"ECCENTRICITY":0.0001955,"INCLINATION":87.9019,"RA_OF_ASC_NODE":291.1728,"ARG_OF_PERICENTER":64.5994,"MEAN_ANOMALY":295.5339,"EPHEMERIS_TYPE":0,"CLASSIFICATION_TYPE":"U","NORAD_CAT_ID":48788,"ELEMENT_SET_NO":999,"REV_AT_EPOCH":22320,"BSTAR":0.00011992,"MEAN_MOTION_DOT":5.8e-7,"MEAN_MOTION_DDOT":0},{"OBJECT_NAME":"ONEWEB-0221","OBJECT_ID":"2021-045Y","EPOCH":"2026-01-07T18:18:44.272224","MEAN_MOTION":13.15549056,"ECCENTRICITY":0.0001555,"INCLINATION":87.9014,"RA_OF_ASC_NODE":291.1991,"ARG_OF_PERICENTER":67.069,"MEAN_ANOMALY":293.0604,"EPHEMERIS_TYPE":0,"CLASSIFICATION_TYPE":"U","NORAD_CAT_ID":48789,"ELEMENT_SET_NO":999,"REV_AT_EPOCH":22328,"BSTAR":0.00029884,"MEAN_MOTION_DOT":1.25e-6,"MEAN_MOTION_DDOT":0},{"OBJECT_NAME":"ONEWEB-0213","OBJECT_ID":"2021-045Z","EPOCH":"2026-01-07T19:52:16.359168","MEAN_MOTION":13.15555054,"ECCENTRICITY":0.00016,"INCLINATION":87.9006,"RA_OF_ASC_NODE":291.1917,"ARG_OF_PERICENTER":63.1124,"MEAN_ANOMALY":297.017,"EPHEMERIS_TYPE":0,"CLASSIFICATION_TYPE":"U","NORAD_CAT_ID":48790,"ELEMENT_SET_NO":999,"REV_AT_EPOCH":22335,"BSTAR":0.0023763,"MEAN_MOTION_DOT":9.08e-6,"MEAN_MOTION_DDOT":0},{"OBJECT_NAME":"ONEWEB-0212","OBJECT_ID":"2021-045AA","EPOCH":"2026-01-07T19:19:12.279072","MEAN_MOTION":13.1554991,"ECCENTRICITY":0.0001631,"INCLINATION":87.9017,"RA_OF_ASC_NODE":291.1886,"ARG_OF_PERICENTER":75.157,"MEAN_ANOMALY":284.9741,"EPHEMERIS_TYPE":0,"CLASSIFICATION_TYPE":"U","NORAD_CAT_ID":48791,"ELEMENT_SET_NO":999,"REV_AT_EPOCH":22334,"BSTAR":-0.00029281,"MEAN_MOTION_DOT":-9.7e-7,"MEAN_MOTION_DDOT":0},{"OBJECT_NAME":"ONEWEB-0227","OBJECT_ID":"2021-045AB","EPOCH":"2026-01-07T19:18:03.801888","MEAN_MOTION":13.15548935,"ECCENTRICITY":0.0001593,"INCLINATION":87.9008,"RA_OF_ASC_NODE":291.1962,"ARG_OF_PERICENTER":72.4534,"MEAN_ANOMALY":287.677,"EPHEMERIS_TYPE":0,"CLASSIFICATION_TYPE":"U","NORAD_CAT_ID":48792,"ELEMENT_SET_NO":999,"REV_AT_EPOCH":22329,"BSTAR":5.0546e-5,"MEAN_MOTION_DOT":3.2e-7,"MEAN_MOTION_DDOT":0},{"OBJECT_NAME":"ONEWEB-0226","OBJECT_ID":"2021-045AC","EPOCH":"2026-01-07T17:19:24.058272","MEAN_MOTION":13.15550085,"ECCENTRICITY":0.000177,"INCLINATION":87.9009,"RA_OF_ASC_NODE":291.2224,"ARG_OF_PERICENTER":63.3623,"MEAN_ANOMALY":296.7689,"EPHEMERIS_TYPE":0,"CLASSIFICATION_TYPE":"U","NORAD_CAT_ID":48793,"ELEMENT_SET_NO":999,"REV_AT_EPOCH":22325,"BSTAR":-1.3517e-5,"MEAN_MOTION_DOT":8.0e-8,"MEAN_MOTION_DDOT":0},{"OBJECT_NAME":"ONEWEB-0224","OBJECT_ID":"2021-045AD","EPOCH":"2026-01-07T20:05:57.940224","MEAN_MOTION":13.15550155,"ECCENTRICITY":6.92e-5,"INCLINATION":87.9009,"RA_OF_ASC_NODE":291.2349,"ARG_OF_PERICENTER":70.9833,"MEAN_ANOMALY":289.1372,"EPHEMERIS_TYPE":0,"CLASSIFICATION_TYPE":"U","NORAD_CAT_ID":48794,"ELEMENT_SET_NO":999,"REV_AT_EPOCH":22319,"BSTAR":0.00026268,"MEAN_MOTION_DOT":1.12e-6,"MEAN_MOTION_DDOT":0},{"OBJECT_NAME":"ONEWEB-0233","OBJECT_ID":"2021-045AE","EPOCH":"2026-01-07T18:23:05.827488","MEAN_MOTION":13.15547639,"ECCENTRICITY":0.0001442,"INCLINATION":87.9007,"RA_OF_ASC_NODE":291.2593,"ARG_OF_PERICENTER":63.7089,"MEAN_ANOMALY":296.4189,"EPHEMERIS_TYPE":0,"CLASSIFICATION_TYPE":"U","NORAD_CAT_ID":48795,"ELEMENT_SET_NO":999,"REV_AT_EPOCH":22320,"BSTAR":0.00047218,"MEAN_MOTION_DOT":1.91e-6,"MEAN_MOTION_DDOT":0},{"OBJECT_NAME":"ONEWEB-0190","OBJECT_ID":"2021-045AF","EPOCH":"2026-01-07T19:54:32.213664","MEAN_MOTION":13.155483,"ECCENTRICITY":0.0001633,"INCLINATION":87.9005,"RA_OF_ASC_NODE":291.208,"ARG_OF_PERICENTER":46.1383,"MEAN_ANOMALY":313.9882,"EPHEMERIS_TYPE":0,"CLASSIFICATION_TYPE":"U","NORAD_CAT_ID":48796,"ELEMENT_SET_NO":999,"REV_AT_EPOCH":22328,"BSTAR":-0.00089843,"MEAN_MOTION_DOT":-3.25e-6,"MEAN_MOTION_DDOT":0},{"OBJECT_NAME":"ONEWEB-0236","OBJECT_ID":"2021-045AG","EPOCH":"2026-01-07T18:30:08.414208","MEAN_MOTION":13.15548368,"ECCENTRICITY":0.0001603,"INCLINATION":87.9008,"RA_OF_ASC_NODE":291.2311,"ARG_OF_PERICENTER":78.4752,"MEAN_ANOMALY":281.6558,"EPHEMERIS_TYPE":0,"CLASSIFICATION_TYPE":"U","NORAD_CAT_ID":48797,"ELEMENT_SET_NO":999,"REV_AT_EPOCH":22316,"BSTAR":0.00042392,"MEAN_MOTION_DOT":1.72e-6,"MEAN_MOTION_DDOT":0},{"OBJECT_NAME":"ONEWEB-0248","OBJECT_ID":"2021-045AH","EPOCH":"2026-01-07T18:48:24.433632","MEAN_MOTION":13.1554905,"ECCENTRICITY":0.0001201,"INCLINATION":87.9017,"RA_OF_ASC_NODE":291.1951,"ARG_OF_PERICENTER":58.376,"MEAN_ANOMALY":301.7487,"EPHEMERIS_TYPE":0,"CLASSIFICATION_TYPE":"U","NORAD_CAT_ID":48798,"ELEMENT_SET_NO":999,"REV_AT_EPOCH":22332,"BSTAR":0.00045587,"MEAN_MOTION_DOT":1.84e-6,"MEAN_MOTION_DDOT":0},{"OBJECT_NAME":"ONEWEB-0225","OBJECT_ID":"2021-045AJ","EPOCH":"2026-01-07T19:20:20.789088","MEAN_MOTION":13.15548711,"ECCENTRICITY":0.000162,"INCLINATION":87.901,"RA_OF_ASC_NODE":291.2122,"ARG_OF_PERICENTER":52.2289,"MEAN_ANOMALY":307.8988,"EPHEMERIS_TYPE":0,"CLASSIFICATION_TYPE":"U","NORAD_CAT_ID":48799,"ELEMENT_SET_NO":999,"REV_AT_EPOCH":22333,"BSTAR":-0.00020531,"MEAN_MOTION_DOT":-6.4e-7,"MEAN_MOTION_DDOT":0},{"OBJECT_NAME":"ONEWEB-0215","OBJECT_ID":"2021-045AK","EPOCH":"2026-01-07T18:36:59.127840","MEAN_MOTION":13.15547899,"ECCENTRICITY":0.0001423,"INCLINATION":87.9022,"RA_OF_ASC_NODE":291.1832,"ARG_OF_PERICENTER":48.229,"MEAN_ANOMALY":311.8962,"EPHEMERIS_TYPE":0,"CLASSIFICATION_TYPE":"U","NORAD_CAT_ID":48800,"ELEMENT_SET_NO":999,"REV_AT_EPOCH":22320,"BSTAR":0.00048552,"MEAN_MOTION_DOT":1.96e-6,"MEAN_MOTION_DDOT":0},{"OBJECT_NAME":"ONEWEB-0216","OBJECT_ID":"2021-045AL","EPOCH":"2026-01-07T20:40:12.113184","MEAN_MOTION":13.15549072,"ECCENTRICITY":0.0001853,"INCLINATION":87.9011,"RA_OF_ASC_NODE":291.1931,"ARG_OF_PERICENTER":71.6356,"MEAN_ANOMALY":288.4975,"EPHEMERIS_TYPE":0,"CLASSIFICATION_TYPE":"U","NORAD_CAT_ID":48801,"ELEMENT_SET_NO":999,"REV_AT_EPOCH":22322,"BSTAR":0.00050249,"MEAN_MOTION_DOT":2.02e-6,"MEAN_MOTION_DDOT":0},{"OBJECT_NAME":"ONEWEB-0239","OBJECT_ID":"2021-045AM","EPOCH":"2026-01-07T18:57:31.532256","MEAN_MOTION":13.15548983,"ECCENTRICITY":0.000111,"INCLINATION":87.9009,"RA_OF_ASC_NODE":291.2217,"ARG_OF_PERICENTER":49.347,"MEAN_ANOMALY":310.7757,"EPHEMERIS_TYPE":0,"CLASSIFICATION_TYPE":"U","NORAD_CAT_ID":48802,"ELEMENT_SET_NO":999,"REV_AT_EPOCH":22325,"BSTAR":9.5145e-6,"MEAN_MOTION_DOT":1.6e-7,"MEAN_MOTION_DDOT":0}]
